STARLINK-30574          
1 58094U 23160V   26067.74576671 -.00000566  00000+0 -11422-4 0  9994
2 58094  42.9995  83.0195 0001269 272.8870  87.1836 15.26771050132805
KUIPER-00226            
1 67785U 26030X   26068.62629313  .00046834  00000+0  15530-2 0  9998
2 67785  51.8814 220.1252 0017713  64.2781 296.0030 15.30655594  5078
